NORAD_CAT_ID,OBJECT_NAME,OBJECT_TYPE,EPOCH,MEAN_MOTION,ECCENTRICITY,INCLINATION,RA_OF_ASC_NODE,ARG_OF_PERICENTER,MEAN_ANOMALY,BSTAR,MEAN_MOTION_DOT,MEAN_MOTION_DDOT,TLE_LINE0,TLE_LINE1,TLE_LINE2,SEMIMAJOR_AXIS,PERIOD,APOGEE,PERIGEE,DECAYED
49436.0,STARLINK-3049,PAYLOAD,2023-02-06 13:28:47,15.0884297,0.0001245,53.2117,228.9988,85.926,274.1874,5.1815e-05,5.37e-06,0.0,0 STARLINK-3049,1 49436U 21104AE  23037.56166526  .00000537  00000-0  51815-4 0  9995,2 49436  53.2117 228.9988 0001245  85.9260 274.1874 15.08842970 68758,6917.871,95.437,540.598,538.875,0.0
49436.0,STARLINK-3049,PAYLOAD,2023-02-06 21:25:43,15.08847881,0.0001233,53.212,227.5118,86.1363,273.977,0.00012921,1.77e-05,0.0,0 STARLINK-3049,1 49436U 21104AE  23037.89286210  .00001770  00000-0  12921-3 0  9998,2 49436  53.2120 227.5118 0001233  86.1363 273.9770 15.08847881 69878,6917.856,95.437,540.574,538.868,0.0
49436.0,STARLINK-3049,PAYLOAD,2023-02-07 13:19:35,15.08836939,0.0001238,53.2122,224.5377,89.4495,270.6639,6.9469e-05,8.18e-06,0.0,0 STARLINK-3049,1 49436U 21104AE  23038.55526783  .00000818  00000-0  69469-4 0  9996,2 49436  53.2122 224.5377 0001238  89.4495 270.6639 15.08836939 69972,6917.89,95.438,540.611,538.898,0.0
49436.0,STARLINK-3049,PAYLOAD,2023-02-07 21:16:30,15.0884237,0.000121,53.2124,223.0505,87.7039,272.4092,0.00010128,1.324e-05,0.0,0 STARLINK-3049,1 49436U 21104AE  23038.88646505  .00001324  00000-0  10128-3 0  9997,2 49436  53.2124 223.0505 0001210  87.7039 272.4092 15.08842370 68952,6917.873,95.437,540.575,538.901,0.0
49436.0,STARLINK-3049,PAYLOAD,2023-02-08 11:34:58,15.08839231,0.0001241,53.2127,220.3736,84.785,275.3283,6.8116e-05,7.96e-06,0.0,0 STARLINK-3049,1 49436U 21104AE  23039.48262693  .00000796  00000-0  68116-4 0  9999,2 49436  53.2127 220.3736 0001241  84.7850 275.3283 15.08839231 69040,6917.883,95.438,540.606,538.889,0.0
49436.0,STARLINK-3049,PAYLOAD,2023-02-08 19:31:54,15.08845972,0.0001238,53.2135,218.8874,87.1415,272.9718,0.00011278,1.508e-05,0.0,0 STARLINK-3049,1 49436U 21104AE  23039.81382362  .00001508  00000-0  11278-3 0  9990,2 49436  53.2135 218.8874 0001238  87.1415 272.9718 15.08845972 70164,6917.862,95.437,540.584,538.871,0.0
49436.0,STARLINK-3049,PAYLOAD,2023-02-08 21:07:17,15.08849372,0.0001254,53.2139,218.5903,85.1787,274.9348,0.0001657,2.351e-05,0.0,0 STARLINK-3049,1 49436U 21104AE  23039.88006279  .00002351  00000-0  16570-3 0  9994,2 49436  53.2139 218.5903 0001254  85.1787 274.9348 15.08849372 69107,6917.852,95.437,540.584,538.849,0.0
49436.0,STARLINK-3049,PAYLOAD,2023-02-09 05:04:13,15.08829713,0.000129,53.2136,217.1025,81.8344,278.2795,-7.9773e-05,-1.557e-05,0.0,0 STARLINK-3049,1 49436U 21104AE  23040.21127165 -.00001557  00000-0 -79773-4 0  9995,2 49436  53.2136 217.1025 0001290  81.8344 278.2795 15.08829713 70221,6917.912,95.438,540.669,538.884,0.0
49436.0,STARLINK-3049,PAYLOAD,2023-02-09 20:58:05,15.08841211,0.0001325,53.2141,214.1299,77.5814,282.5327,0.00020587,2.99e-05,0.0,0 STARLINK-3049,1 49436U 21104AE  23040.87367230  .00002990  00000-0  20587-3 0  9994,2 49436  53.2141 214.1299 0001325  77.5814 282.5327 15.08841211 69257,6917.877,95.437,540.658,538.825,0.0
49436.0,STARLINK-3049,PAYLOAD,2023-02-09 22:33:28,15.08841966,0.000131,53.214,213.8325,75.6602,284.4535,0.00030743,4.608e-05,0.0,0 STARLINK-3049,1 49436U 21104AE  23040.93991242  .00004608  00000-0  30743-3 0  9990,2 49436  53.2140 213.8325 0001310  75.6602 284.4535 15.08841966 70330,6917.874,95.437,540.646,538.833,0.0
49436.0,STARLINK-3049,PAYLOAD,2023-02-10 20:48:52,15.0886095,0.0001355,53.2142,209.669,71.9036,288.2104,0.00091593,0.00014327,0.0,0 STARLINK-3049,1 49436U 21104AE  23041.86727015  .00014327  00000-0  91593-3 0  9997,2 49436  53.2142 209.6690 0001355  71.9036 288.2104 15.08860950 69403,6917.816,95.436,540.619,538.744,0.0
49436.0,STARLINK-3049,PAYLOAD,2023-02-11 12:42:43,15.08839823,0.0001209,53.2146,206.6955,72.24,287.8724,9.2155e-05,1.179e-05,0.0,0 STARLINK-3049,1 49436U 21104AE  23042.52967330  .00001179  00000-0  92155-4 0  9994,2 49436  53.2146 206.6955 0001209  72.2400 287.8724 15.08839823 70573,6917.881,95.438,540.582,538.91,0.0
49436.0,STARLINK-3049,PAYLOAD,2023-02-11 20:39:39,15.08852455,0.0001214,53.2141,205.2078,80.6011,279.5118,0.00064854,0.00010052,0.0,0 STARLINK-3049,1 49436U 21104AE  23042.86087074  .00010052  00000-0  64854-3 0  9993,2 49436  53.2141 205.2078 0001214  80.6011 279.5118 15.08852455 69553,6917.842,95.437,540.547,538.867,0.0
49436.0,STARLINK-3049,PAYLOAD,2023-02-11 22:15:02,15.08853447,0.0001229,53.2142,204.9104,80.613,279.5001,0.00068517,0.00010637,0.0,0 STARLINK-3049,1 49436U 21104AE  23042.92711034  .00010637  00000-0  68517-3 0  9999,2 49436  53.2142 204.9104 0001229  80.6130 279.5001 15.08853447 70632,6917.839,95.437,540.554,538.854,0.0
49436.0,STARLINK-3049,PAYLOAD,2023-02-12 17:19:40,15.08843584,0.0001505,53.2144,201.3421,86.6439,273.4725,0.00088745,0.00013865,0.0,0 STARLINK-3049,1 49436U 21104AE  23043.72199561  .00013865  00000-0  88745-3 0  9994,2 49436  53.2144 201.3421 0001505  86.6439 273.4725 15.08843584 70752,6917.869,95.437,540.776,538.693,0.0
49436.0,STARLINK-3049,PAYLOAD,2023-02-13 02:51:59,15.08829739,0.0002552,53.2136,199.5543,87.148,272.9804,0.00018754,2.697e-05,0.0,0 STARLINK-3049,1 49436U 21104AE  23044.11943839  .00002697  00000-0  18754-3 0  9997,2 49436  53.2136 199.5543 0002552  87.1480 272.9804 15.08829739 70816,6917.912,95.438,541.542,538.011,0.0
49436.0,STARLINK-3049,PAYLOAD,2023-02-13 10:48:54,15.08841941,0.0001049,53.2142,198.0711,104.9209,255.1899,0.00046505,7.122e-05,0.0,0 STARLINK-3049,1 49436U 21104AE  23044.45063622  .00007122  00000-0  46505-3 0  9990,2 49436  53.2142 198.0711 0001049 104.9209 255.1899 15.08841941 69792,6917.874,95.437,540.465,539.014,0.0
49436.0,STARLINK-3049,PAYLOAD,2023-02-13 17:10:27,15.08856245,0.0001179,53.2143,196.882,92.8485,267.2642,0.0014767,0.00023302,0.0,0 STARLINK-3049,1 49436U 21104AE  23044.71559449  .00023302  00000-0  14767-2 0  9998,2 49436  53.2143 196.8820 0001179  92.8485 267.2642 15.08856245 70903,6917.831,95.437,540.511,538.88,0.0
49436.0,STARLINK-3049,PAYLOAD,2023-02-14 02:42:46,15.08844312,0.0001936,53.2142,195.0978,80.372,279.7491,0.00034048,5.135e-05,0.0,0 STARLINK-3049,1 49436U 21104AE  23045.11303368  .00005135  00000-0  34048-3 0  9999,2 49436  53.2142 195.0978 0001936  80.3720 279.7491 15.08844312 70960,6917.867,95.437,541.072,538.393,0.0
49436.0,STARLINK-3049,PAYLOAD,2023-02-14 20:12:00,15.08845763,0.0001213,53.2145,191.8256,73.1482,286.9643,0.00041289,6.29e-05,0.0,0 STARLINK-3049,1 49436U 21104AE  23045.84167505  .00006290  00000-0  41289-3 0  9998,2 49436  53.2145 191.8256 0001213  73.1482 286.9643 15.08845763 71072,6917.863,95.437,540.567,538.889,0.0
49436.0,STARLINK-3049,PAYLOAD,2023-02-15 02:33:33,15.08831333,0.0001125,53.2144,190.6364,89.2902,270.8219,0.00011844,1.597e-05,0.0,0 STARLINK-3049,1 49436U 21104AE  23046.10663682  .00001597  00000-0  11844-3 0  9994,2 49436  53.2144 190.6364 0001125  89.2902 270.8219 15.08831333 71119,6917.907,95.438,540.55,538.994,0.0
49436.0,STARLINK-3049,PAYLOAD,2023-02-15 21:38:10,15.08873861,0.0001163,53.2124,187.0677,87.0942,273.0183,0.0016984,0.00026871,0.0,0 STARLINK-3049,1 49436U 21104AE  23046.90151130  .00026871  00000-0  16984-2 0  9993,2 49436  53.2124 187.0677 0001163  87.0942 273.0183 15.08873861 71236,6917.777,95.435,540.446,538.837,0.0
49436.0,STARLINK-3049,PAYLOAD,2023-02-16 08:45:52,15.08855894,0.0002446,53.2075,184.9878,88.6195,271.5077,0.0013066,0.00020577,0.0,0 STARLINK-3049,1 49436U 21104AE  23047.36519319  .00020577  00000-0  13066-2 0  9996,2 49436  53.2075 184.9878 0002446  88.6195 271.5077 15.08855894 71301,6917.832,95.437,541.389,538.005,0.0
49436.0,STARLINK-3049,PAYLOAD,2023-02-16 15:07:24,15.08890841,0.0001691,53.2135,183.799,101.7646,258.3535,0.0017408,0.00027564,0.0,0 STARLINK-3049,1 49436U 21104AE  23047.63014344  .00027564  00000-0  17408-2 0  9991,2 49436  53.2135 183.7990 0001691 101.7646 258.3535 15.08890841 70277,6917.725,95.434,540.76,538.42,0.0
49436.0,STARLINK-3049,PAYLOAD,2023-02-16 21:28:55,15.08916949,0.0001044,53.2092,182.606,99.2591,260.8519,0.0017839,0.00028277,0.0,0 STARLINK-3049,1 49436U 21104AE  23047.89508959  .00028277  00000-0  17839-2 0  9999,2 49436  53.2092 182.6060 0001044  99.2591 260.8519 15.08916949 71388,6917.645,95.433,540.232,538.788,0.0
49436.0,STARLINK-3049,PAYLOAD,2023-02-17 14:58:11,15.08819833,0.000189,53.2094,179.3352,87.6479,272.4729,0.0012579,0.00019777,0.0,0 STARLINK-3049,1 49436U 21104AE  23048.62374873  .00019777  00000-0  12579-2 0  9998,2 49436  53.2094 179.3352 0001890  87.6479 272.4729 15.08819833 71490,6917.942,95.439,541.115,538.5,0.0
49436.0,STARLINK-3049,PAYLOAD,2023-02-17 19:44:21,15.08832427,0.0001312,53.2131,178.4441,66.648,293.465,0.0017519,0.00027698,0.0,0 STARLINK-3049,1 49436U 21104AE  23048.82247097  .00027698  00000-0  17519-2 0  9997,2 49436  53.2131 178.4441 0001312  66.6480 293.4650 15.08832427 70454,6917.904,95.438,540.676,538.861,0.0
49436.0,STARLINK-3049,PAYLOAD,2023-02-18 19:35:09,15.08841132,0.0001214,53.2126,173.9828,93.3042,266.8089,0.0016717,0.00026418,0.0,0 STARLINK-3049,1 49436U 21104AE  23049.81608418  .00026418  00000-0  16717-2 0  9993,2 49436  53.2126 173.9828 0001214  93.3042 266.8089 15.08841132 71677,6917.877,95.437,540.582,538.902,0.0
49436.0,STARLINK-3049,PAYLOAD,2023-02-19 14:39:47,15.08867215,0.0001237,53.2143,170.4161,72.552,287.5607,0.0018999,0.00030101,0.0,0 STARLINK-3049,1 49436U 21104AE  23050.61096204  .00030101  00000-0  18999-2 0  9995,2 49436  53.2143 170.4161 0001237  72.5520 287.5607 15.08867215 71792,6917.797,95.436,540.518,538.806,0.0
49436.0,STARLINK-3049,PAYLOAD,2023-02-20 08:09:01,15.0883952,0.0001275,53.2137,167.1451,85.8687,274.2451,2.6683e-06,-2.45e-06,0.0,0 STARLINK-3049,1 49436U 21104AE  23051.33960138 -.00000245  00000-0  26683-5 0  9990,2 49436  53.2137 167.1451 0001275  85.8687 274.2451 15.08839520 71904,6917.882,95.438,540.629,538.865,0.0
